QIANFAN-60              
1 62790U 25016F   26073.91532961  .00000041  00000+0  44544-4 0  9991
2 62790  88.9662  93.5137 0017896  79.2431 281.0734 13.51009780 59676
QIANFAN-61              
1 62791U 25016G   26073.94825736  .00000043  00000+0  47140-4 0  9997
2 62791  88.9729  93.7361 0016811  78.7527 281.5513 13.51006238 59695
QIANFAN-62              
1 62792U 25016H   26073.95237278  .00000046  00000+0  52726-4 0  9996
2 62792  88.9676  93.5542 0018196  78.9063 281.4133 13.50997011 59684
QIANFAN-63              
1 62793U 25016J   26071.97752288 -.02122006  00000+0 -36135+1 0  9997
2 62793  88.9681  93.7208 0018229  96.0583 264.2645 13.49196539 59453
QIANFAN-64              
1 62794U 25016K   26073.94413881  .00000048  00000+0  56054-4 0  9993
2 62794  88.9669  93.4744 0016170  77.6788 282.6172 13.51005974 59710
QIANFAN-65              
1 62795U 25016L   26073.93990892  .00000052  00000+0  61930-4 0  9999
2 62795  88.9666  93.4976 0016038  79.1799 281.1157 13.51009238 59698
QIANFAN-66              
1 62796U 25016M   26073.89473272  .00000056  00000+0  68331-4 0  9999
2 62796  88.9685  93.4906 0017093  75.3615 284.9430 13.50997345 59734
QIANFAN-67              
1 62797U 25016N   26073.89880609  .00000053  00000+0  63616-4 0  9994
2 62797  88.9675  93.5066 0017135  81.4018 278.9073 13.50995737 59700
QIANFAN-68              
1 62798U 25016P   26073.89064824  .00000058  00000+0  70980-4 0  9995
2 62798  88.9679  93.5561 0017172  79.8946 280.4141 13.51005716 59688
QIANFAN-69              
1 62799U 25016Q   26073.90711040  .00000054  00000+0  64372-4 0  9991
2 62799  88.9658  93.4039 0017939  80.6415 279.6764 13.51005890 59726
QIANFAN-70              
1 62800U 25016R   26073.92358234  .00000045  00000+0  50565-4 0  9997
2 62800  88.9679  93.5602 0017418  72.1545 288.1505 13.50997466 59682
QIANFAN-71              
1 62801U 25016S   26073.91941926  .00000046  00000+0  52390-4 0  9992
2 62801  88.9673  93.5345 0017874  83.7362 276.5824 13.50996985 59682
QIANFAN-72              
1 62802U 25016T   26073.93589323  .00000045  00000+0  51131-4 0  9995
2 62802  88.9663  93.5371 0021177  89.9488 270.4089 13.50996576 59670
QIANFAN-73              
1 63159U 25046A   26073.88866805  .00000130  00000+0  18267-3 0  9998
2 63159  88.9743 310.5038 0013589 212.6560 147.3752 13.51000851 59853
QIANFAN-74              
1 63160U 25046B   26073.94632058  .00000160  00000+0  22983-3 0  9991
2 63160  88.9744 310.3867 0001978  79.4196 280.7178 13.51001226 59926
QIANFAN-75              
1 63161U 25046C   26073.85967060  .00000143  00000+0  20290-3 0  9996
2 63161  88.9746 310.6307 0014694 216.6328 143.3820 13.50952279 59786
QIANFAN-76              
1 63162U 25046D   26073.92977381  .00000177  00000+0  25571-3 0  9996
2 63162  88.9745 310.6032 0012212 216.1783 143.8543 13.51002429 59809
QIANFAN-77              
1 63163U 25046E   26073.92589975  .00000344  00000+0  24066-3 0  9999
2 63163  88.9741 307.8525 0015577 145.9475 214.2704 13.96180828 61315
QIANFAN-78              
1 63164U 25046F   26073.89689633  .00000172  00000+0  24809-3 0  9992
2 63164  88.9744 310.4698 0013506 219.4822 140.5346 13.51001738 59877
QIANFAN-79              
1 63165U 25046G   26073.92577009  .00000150  00000+0  21423-3 0  9995
2 63165  88.9748 310.5780 0013404 217.5258 142.4959 13.51011631 59823
QIANFAN-80              
1 63166U 25046H   26073.94213906  .00000142  00000+0  20179-3 0  9999
2 63166  88.9745 310.2806 0012151 221.7596 138.2629 13.51000900 59988
QIANFAN-81              
1 63167U 25046J   26073.92039530  .00000092  00000+0  12435-3 0  9997
2 63167  88.9745 310.3507 0013426 210.2129 149.8249 13.50985893 59932
QIANFAN-82              
1 63168U 25046K   26073.88045272  .00000134  00000+0  18830-3 0  9995
2 63168  88.9745 310.3988 0011356 217.3473 142.6890 13.51002302 59913
QIANFAN-83              
1 63169U 25046L   26073.89816547  .00000183  00000+0  22123-3 0  9992
2 63169  88.9745 309.9922 0013177 195.7981 164.2767 13.62025340 60141
QIANFAN-84              
1 63170U 25046M   26073.90941601  .00000196  00000+0  28528-3 0  9995
2 63170  88.9745 310.5285 0014661 214.7400 145.2795 13.50833567 59840
QIANFAN-85              
1 63171U 25046N   26073.90510302  .00000141  00000+0  19905-3 0  9995
2 63171  88.9744 310.4001 0011791 216.1279 143.9077 13.51004925 59911
QIANFAN-86              
1 63172U 25046P   26073.91334276  .00000141  00000+0  20008-3 0  9997
2 63172  88.9746 310.2634 0009552 219.9765 140.0684 13.51004239 59995
QIANFAN-87              
1 63173U 25046Q   26073.88456520  .00000140  00000+0  19856-3 0  9999
2 63173  88.9742 310.3745 0010329 214.8170 145.2306 13.51012714 59922
QIANFAN-88              
1 63174U 25046R   26073.90096796  .00000151  00000+0  21477-3 0  9992
2 63174  88.9745 310.3297 0010560 224.3487 135.6819 13.51000885 59953
QIANFAN-89              
1 63175U 25046S   26073.93808969  .00000147  00000+0  20871-3 0  9991
2 63175  88.9745 310.5150 0015216 215.1273 144.8876 13.51011403 59850
QIANFAN-90              
1 63176U 25046T   26073.89285982  .00000168  00000+0  24078-3 0  9997
2 63176  88.9745 310.4921 0012197 212.4942 147.5460 13.51011697 59869
QIANFAN-91              
1 66033U 25233A   26073.92542758  .00000062  00000+0  77202-4 0  9992
2 66033  88.9944  52.7149 0002088  91.0690 269.0700 13.51005219 20455
QIANFAN-92              
1 66034U 25233B   26073.93358521  .00000051  00000+0  60705-4 0  9995
2 66034  88.9928  52.7012 0001998  85.3758 274.7622 13.51006422 20450
QIANFAN-93              
1 66035U 25233C   26073.94182436  .00000058  00000+0  71282-4 0  9996
2 66035  88.9955  52.7267 0002043  89.7036 270.4350 13.51005665 20451
QIANFAN-94              
1 66036U 25233D   26073.92941180  .00000052  00000+0  61646-4 0  9991
2 66036  88.9952  52.6344 0002128  85.9756 274.1638 13.50992547 20504
QIANFAN-95              
1 66037U 25233E   26073.93750608  .00000058  00000+0  71576-4 0  9995
2 66037  88.9949  52.1797 0002219  90.2930 269.8475 13.51016006 20757
QIANFAN-96              
1 66038U 25233F   26073.88838151  .00000063  00000+0  79205-4 0  9993
2 66038  88.9946  52.7303 0002125  92.8328 267.3066 13.51005337 20449
QIANFAN-97              
1 66039U 25233G   26073.94597618  .00000054  00000+0  65798-4 0  9993
2 66039  88.9950  52.7054 0002080  90.7007 269.4383 13.51004743 20466
QIANFAN-98              
1 66040U 25233H   26073.95414838  .00000059  00000+0  72207-4 0  9996
2 66040  88.9939  52.4458 0002456  79.5889 280.5539 13.51005399 20601
QIANFAN-99              
1 66041U 25233J   26073.88424647  .00000062  00000+0  77504-4 0  9997
2 66041  88.9950  52.7151 0002396  84.1054 276.0370 13.51005481 20455
QIANFAN-100             
1 66042U 25233K   26073.95004608  .00000050  00000+0  59592-4 0  9991
2 66042  88.9962  52.6250 0002051  90.4099 269.7287 13.51006378 20514
QIANFAN-101             
1 66043U 25233L   26073.89562106  .00000636  00000+0  25661-3 0  9996
2 66043  88.9951  51.3837 0017317  92.3755 267.9422 14.26747047 21184
QIANFAN-102             
1 66044U 25233M   26073.89651627  .00000070  00000+0  89156-4 0  9996
2 66044  88.9948  52.6258 0002178  86.1446 273.9954 13.50993274 20502
QIANFAN-103             
1 66045U 25233N   26073.90072930  .00000063  00000+0  79554-4 0  9996
2 66045  88.9951  52.7179 0002039  90.5655 269.5730 13.51006880 20453
QIANFAN-104             
1 66046U 25233P   26073.90459997  .00000068  00000+0  87222-4 0  9995
2 66046  88.9956  52.6154 0002119  83.6079 276.5313 13.51011104 20509
QIANFAN-105             
1 66047U 25233Q   26073.91296568  .00000058  00000+0  71800-4 0  9994
2 66047  88.9969  52.4450 0002189  89.4522 270.6880 13.50982286 20618
QIANFAN-106             
1 66048U 25233R   26073.98298012  .00000043  00000+0  48606-4 0  9990
2 66048  88.9938  52.6804 0002394  80.9085 279.2337 13.51005887 20478
QIANFAN-107             
1 66049U 25233S   26073.91719030  .00000062  00000+0  77958-4 0  9995
2 66049  88.9953  52.7046 0002045  89.6346 270.5040 13.51003932 20467
QIANFAN-108             
1 66050U 25233T   26073.92128440  .00000050  00000+0  59140-4 0  9997
2 66050  88.9946  52.6986 0002336  80.8863 279.2552 13.51005324 20464
